OBJECT_NAME,OBJECT_ID,EPOCH,MEAN_MOTION,ECCENTRICITY,INCLINATION,RA_OF_ASC_NODE,ARG_OF_PERICENTER,MEAN_ANOMALY,EPHEMERIS_TYPE,CLASSIFICATION_TYPE,NORAD_CAT_ID,ELEMENT_SET_NO,REV_AT_EPOCH,BSTAR,MEAN_MOTION_DOT,MEAN_MOTION_DDOT
IRIDIUM 154,2018-061F,2026-06-18T23:25:10.353792,14.34217457,.00021515,86.3960,56.0590,88.4410,271.7032,0,U,43574,999,41366,.82369046E-4,.25E-5,0
IRIDIUM 163,2018-061G,2026-06-18T22:57:46.340640,14.34216576,.00022327,86.3958,55.9823,83.1313,277.0137,0,U,43575,999,41363,.9964347E-5,.48E-6,0
IRIDIUM 156,2018-061H,2026-06-18T22:21:14.746752,14.34215962,.00020549,86.3960,56.0002,82.5416,277.6013,0,U,43576,999,41362,.83639041E-4,.254E-5,0
IRIDIUM 164,2018-061J,2026-06-18T23:34:18.423552,14.34217838,.00021564,86.3959,56.0194,89.4709,270.6734,0,U,43577,999,41367,.77297646E-4,.236E-5,0
IRIDIUM 159,2018-061K,2026-06-18T22:48:38.509344,14.34217682,.00022629,86.3959,55.9693,83.7350,276.4104,0,U,43578,999,41363,.7289841E-5,.4E-6,0
IRIDIUM 180,2019-002A,2026-06-18T17:46:30.892512,14.34217630,.00022578,86.3971,352.9480,89.3903,270.7552,0,U,43922,999,38921,.50041958E-4,.16E-5,0
IRIDIUM 176,2019-002B,2026-06-18T22:13:33.008736,14.72268945,.00023112,86.6091,352.8136,93.2198,266.9283,0,U,43923,999,39950,.88530961E-4,.583E-5,0
IRIDIUM 168,2019-002C,2026-06-18T19:17:50.561952,14.34219595,.00022107,86.3974,352.9988,89.7821,270.3629,0,U,43924,999,38920,.52469395E-4,.167E-5,0
IRIDIUM 173,2019-002D,2026-06-18T22:20:30.950592,14.34217297,.00021835,86.3969,352.8345,87.5547,272.5899,0,U,43925,999,38920,.50613501E-4,.162E-5,0
IRIDIUM 169,2019-002E,2026-06-18T20:26:55.004928,14.38609638,.00017983,86.4223,24.4972,73.7428,286.3968,0,U,43926,999,39046,.61941633E-4,.209E-5,0
IRIDIUM 172,2019-002F,2026-06-18T22:11:22.637184,14.34219155,.00022568,86.3970,352.8451,88.8459,271.2995,0,U,43927,999,38921,.5029208E-4,.161E-5,0
IRIDIUM 175,2019-002G,2026-06-18T17:33:17.806176,14.43613460,.00027046,86.4514,289.8753,174.4783,185.6448,0,U,43928,999,39920,.7253448E-4,.266E-5,0
IRIDIUM 171,2019-002H,2026-06-18T21:43:58.911744,14.34217310,.0001944,86.3975,353.1594,91.5598,268.5820,0,U,43929,999,38920,-.19429326E-4,-.35E-6,0
IRIDIUM 170,2019-002J,2026-06-18T22:22:26.950368,14.72269400,.00023585,86.6092,352.8134,89.7308,270.4179,0,U,43930,999,39951,.87629399E-4,.577E-5,0
IRIDIUM 167,2019-002K,2026-06-18T23:15:18.871488,14.34217561,.00017827,86.3966,352.8490,93.2744,266.8656,0,U,43931,999,38921,-.2270016E-5,.13E-6,0
IRIDIUM 181,2023-068S,2026-06-18T23:28:48.996768,14.43310294,.00025876,86.4500,56.0422,89.1129,271.0369,0,U,56726,999,16269,.68577351E-4,.251E-5,0
IRIDIUM 177,2023-068T,2026-06-18T09:42:03.484800,14.80226116,.0002355,86.1965,328.2134,88.5696,271.5795,0,U,56727,999,16654,.63133E-4,.506E-5,0
IRIDIUM 174,2023-068U,2026-06-18T22:04:41.433600,14.72265821,.00024438,86.6099,352.9662,84.3037,275.8459,0,U,56728,999,16627,.90745657E-4,.597E-5,0
IRIDIUM 178,2023-068V,2026-06-18T20:47:49.483680,14.80236167,.00026186,86.6536,24.6583,85.4861,274.6659,0,U,56729,999,16661,.94180024E-4,.742E-5,0
IRIDIUM 179,2023-068W,2026-06-18T20:40:03.286560,14.80233445,.00024624,86.6773,33.6453,87.8173,272.3330,0,U,56730,999,16661,.90726189E-4,.716E-5,0
