IRIDIUM 154             
1 43574U 18061F   26169.97581428  .00000250  00000+0  82369-4 0  9995
2 43574  86.3960  56.0590 0002151  88.4410 271.7032 14.34217457413666
IRIDIUM 163             
1 43575U 18061G   26169.95678635  .00000048  00000+0  99643-5 0  9990
2 43575  86.3958  55.9823 0002232  83.1313 277.0137 14.34216576413638
IRIDIUM 156             
1 43576U 18061H   26169.93142068  .00000254  00000+0  83639-4 0  9991
2 43576  86.3960  56.0002 0002054  82.5416 277.6013 14.34215962413628
IRIDIUM 164             
1 43577U 18061J   26169.98215768  .00000236  00000+0  77298-4 0  9999
2 43577  86.3959  56.0194 0002156  89.4709 270.6734 14.34217838413675
IRIDIUM 159             
1 43578U 18061K   26169.95044571  .00000040  00000+0  72898-5 0  9994
2 43578  86.3959  55.9693 0002262  83.7350 276.4104 14.34217682413633
IRIDIUM 180             
1 43922U 19002A   26169.74063533  .00000160  00000+0  50042-4 0  9998
2 43922  86.3971 352.9480 0002257  89.3903 270.7552 14.34217630389217
IRIDIUM 176             
1 43923U 19002B   26169.92607649  .00000583  00000+0  88531-4 0  9994
2 43923  86.6091 352.8136 0002311  93.2198 266.9283 14.72268945399500
IRIDIUM 168             
1 43924U 19002C   26169.80405743  .00000167  00000+0  52469-4 0  9992
2 43924  86.3974 352.9988 0002210  89.7821 270.3629 14.34219595389209
IRIDIUM 173             
1 43925U 19002D   26169.93091378  .00000162  00000+0  50614-4 0  9997
2 43925  86.3969 352.8345 0002183  87.5547 272.5899 14.34217297389200
IRIDIUM 169             
1 43926U 19002E   26169.85202552  .00000209  00000+0  61942-4 0  9995
2 43926  86.4223  24.4972 0001798  73.7428 286.3968 14.38609638390467
IRIDIUM 172             
1 43927U 19002F   26169.92456756  .00000161  00000+0  50292-4 0  9994
2 43927  86.3970 352.8451 0002256  88.8459 271.2995 14.34219155389218
IRIDIUM 175             
1 43928U 19002G   26169.73145609  .00000266  00000+0  72534-4 0  9995
2 43928  86.4514 289.8753 0002704 174.4783 185.6448 14.43613460399206
IRIDIUM 171             
1 43929U 19002H   26169.90554296 -.00000035  00000+0 -19429-4 0  9991
2 43929  86.3975 353.1594 0001944  91.5598 268.5820 14.34217310389201
IRIDIUM 170             
1 43930U 19002J   26169.93225637  .00000577  00000+0  87629-4 0  9996
2 43930  86.6092 352.8134 0002358  89.7308 270.4179 14.72269400399513
IRIDIUM 167             
1 43931U 19002K   26169.96896842  .00000013  00000+0 -22700-5 0  9998
2 43931  86.3966 352.8490 0001782  93.2744 266.8656 14.34217561389214
IRIDIUM 181             
1 56726U 23068S   26169.97834487  .00000251  00000+0  68577-4 0  9993
2 56726  86.4500  56.0422 0002587  89.1129 271.0369 14.43310294162695
IRIDIUM 177             
1 56727U 23068T   26169.40420700  .00000506  00000+0  63133-4 0  9997
2 56727  86.1965 328.2134 0002355  88.5696 271.5795 14.80226116166543
IRIDIUM 174             
1 56728U 23068U   26169.91992400  .00000597  00000+0  90746-4 0  9995
2 56728  86.6099 352.9662 0002443  84.3037 275.8459 14.72265821166279
IRIDIUM 178             
1 56729U 23068V   26169.86654495  .00000742  00000+0  94180-4 0  9997
2 56729  86.6536  24.6583 0002618  85.4861 274.6659 14.80236167166619
IRIDIUM 179             
1 56730U 23068W   26169.86114915  .00000716  00000+0  90726-4 0  9990
2 56730  86.6773  33.6453 0002462  87.8173 272.3330 14.80233445166616
